start=new Date('2022-10-27T00:00:00.000Z').valueOf();
sats=[{"ELEMENT_SET_NO":"999","FILE":"3635100","COUNTRY_CODE":"US","NORAD_CAT_ID":"53692","OBJECT_NAME":"STARLINK-4572","EPOCH":"2022-10-26T22:00:00.999936","CENTER_NAME":"EARTH","REF_FRAME":"TEME","BSTAR":"0.00013008000000","OBJECT_ID":"2022-105AW","PERIOD":"95.920","INCLINATION":"97.6523","TLE_LINE1":"1 53692U 22105AW  22299.91667824  .00001612  00000-0  13008-3 0  9997","ECCENTRICITY":"0.00023110","MEAN_MOTION_DOT":"0.00001612","GP_ID":"216267687","MEAN_MOTION_DDOT":"0.0000000000000","EPHEMERIS_TYPE":"0","LAUNCH_DATE":"2022-08-31","REV_AT_EPOCH":"130","TIME_SYSTEM":"UTC","RCS_SIZE":"LARGE","OBJECT_TYPE":"PAYLOAD","RA_OF_ASC_NODE":"179.3288","ARG_OF_PERICENTER":"132.2123","SEMIMAJOR_AXIS":"6941.191","CLASSIFICATION_TYPE":"U","SITE":"AFWTR","MEAN_MOTION":"15.01245560","MEAN_ELEMENT_THEORY":"SGP4","TLE_LINE2":"2 53692  97.6523 179.3288 0002311 132.2123 250.9929 15.01245560  1307","APOAPSIS":"564.660","DECAY_DATE":null,"MEAN_ANOMALY":"250.9929","PERIAPSIS":"561.452"},{"TLE_LINE1":"1 53693U 22105AX  22299.91667824  .00002233  00000-0  17835-3 0  9990","ECCENTRICITY":"0.00022310","MEAN_MOTION_DOT":"0.00002233","GP_ID":"216268322","EPHEMERIS_TYPE":"0","MEAN_MOTION_DDOT":"0.0000000000000","NORAD_CAT_ID":"53693","OBJECT_NAME":"STARLINK-4566","EPOCH":"2022-10-26T22:00:00.999936","CENTER_NAME":"EARTH","BSTAR":"0.00017835000000","REF_FRAME":"TEME","INCLINATION":"97.6517","PERIOD":"95.919","OBJECT_ID":"2022-105AX","FILE":"3635100","COUNTRY_CODE":"US","ELEMENT_SET_NO":"999","MEAN_ANOMALY":"262.4093","PERIAPSIS":"561.441","MEAN_MOTION":"15.01267158","MEAN_ELEMENT_THEORY":"SGP4","TLE_LINE2":"2 53693  97.6517 179.3285 0002231 130.6994 262.4093 15.01267158  1304","APOAPSIS":"564.538","DECAY_DATE":null,"ARG_OF_PERICENTER":"130.6994","SEMIMAJOR_AXIS":"6941.125","CLASSIFICATION_TYPE":"U","SITE":"AFWTR","LAUNCH_DATE":"2022-08-31","REV_AT_EPOCH":"130","TIME_SYSTEM":"UTC","RCS_SIZE":"LARGE","RA_OF_ASC_NODE":"179.3285","OBJECT_TYPE":"PAYLOAD"},{"TIME_SYSTEM":"UTC","OBJECT_TYPE":"PAYLOAD","RCS_SIZE":"LARGE","RA_OF_ASC_NODE":"16.6509","LAUNCH_DATE":"2022-09-05","REV_AT_EPOCH":"130","CLASSIFICATION_TYPE":"U","SITE":"AFETR","ARG_OF_PERICENTER":"19.0969","SEMIMAJOR_AXIS":"6727.676","DECAY_DATE":null,"APOAPSIS":"351.278","MEAN_MOTION":"15.73276755","MEAN_ELEMENT_THEORY":"SGP4","TLE_LINE2":"2 53700  53.2131  16.6509 0002581  19.0969 303.3509 15.73276755  1304","MEAN_ANOMALY":"303.3509","PERIAPSIS":"347.805","ELEMENT_SET_NO":"999","FILE":"3635100","COUNTRY_CODE":"US","CENTER_NAME":"EARTH","REF_FRAME":"TEME","BSTAR":"-0.00091773000000","PERIOD":"91.529","OBJECT_ID":"2022-107A","INCLINATION":"53.2131","NORAD_CAT_ID":"53700","EPOCH":"2022-10-26T22:00:00.999936","OBJECT_NAME":"STARLINK-4725","MEAN_MOTION_DOT":"-0.00127926","EPHEMERIS_TYPE":"0","GP_ID":"216267269","MEAN_MOTION_DDOT":"0.0000000000000","TLE_LINE1":"1 53700U 22107A   22299.91667824 -.00127926  00000-0 -91773-3 0  9993","ECCENTRICITY":"0.00025810"},{"MEAN_MOTION_DOT":"0.00016699","EPHEMERIS_TYPE":"0","GP_ID":"216268039","MEAN_MOTION_DDOT":"0.0000000000000","TLE_LINE1":"1 53701U 22107B   22299.91667824  .00016699  00000-0  12325-3 0  9992","ECCENTRICITY":"0.00026110","CENTER_NAME":"EARTH","BSTAR":"0.00012325000000","REF_FRAME":"TEME","PERIOD":"91.534","INCLINATION":"53.2147","OBJECT_ID":"2022-107B","NORAD_CAT_ID":"53701","EPOCH":"2022-10-26T22:00:00.999936","OBJECT_NAME":"STARLINK-4711","FILE":"3635100","COUNTRY_CODE":"US","ELEMENT_SET_NO":"999","MEAN_ANOMALY":"309.8216","PERIAPSIS":"348.053","DECAY_DATE":null,"APOAPSIS":"351.566","MEAN_MOTION":"15.73182811","MEAN_ELEMENT_THEORY":"SGP4","TLE_LINE2":"2 53701  53.2147  16.6501 0002611  13.2172 309.8216 15.73182811  1305","CLASSIFICATION_TYPE":"U","SITE":"AFETR","ARG_OF_PERICENTER":"13.2172","SEMIMAJOR_AXIS":"6727.944","TIME_SYSTEM":"UTC","RA_OF_ASC_NODE":"16.6501","RCS_SIZE":"LARGE","OBJECT_TYPE":"PAYLOAD","LAUNCH_DATE":"2022-09-05","REV_AT_EPOCH":"130"},{"COUNTRY_CODE":"US","FILE":"3635100","ELEMENT_SET_NO":"999","ECCENTRICITY":"0.00024660","TLE_LINE1":"1 53702U 22107C   22299.91667824 -.00112009  00000-0 -80173-3 0  9993","EPHEMERIS_TYPE":"0","GP_ID":"216267445","MEAN_MOTION_DDOT":"0.0000000000000","MEAN_MOTION_DOT":"-0.00112009","EPOCH":"2022-10-26T22:00:00.999936","OBJECT_NAME":"STARLINK-4724","NORAD_CAT_ID":"53702","INCLINATION":"53.2150","PERIOD":"91.529","OBJECT_ID":"2022-107C","BSTAR":"-0.00080173000000","REF_FRAME":"TEME","CENTER_NAME":"EARTH","SEMIMAJOR_AXIS":"6727.695","ARG_OF_PERICENTER":"18.0655","SITE":"AFETR","CLASSIFICATION_TYPE":"U","REV_AT_EPOCH":"130","LAUNCH_DATE":"2022-09-05","RA_OF_ASC_NODE":"16.6479","RCS_SIZE":"LARGE","OBJECT_TYPE":"PAYLOAD","TIME_SYSTEM":"UTC","PERIAPSIS":"347.901","MEAN_ANOMALY":"306.1674","TLE_LINE2":"2 53702  53.2150  16.6479 0002466  18.0655 306.1674 15.73270160  1304","MEAN_ELEMENT_THEORY":"SGP4","MEAN_MOTION":"15.73270160","APOAPSIS":"351.219","DECAY_DATE":null},{"REF_FRAME":"TEME","BSTAR":"-0.00083820000000","INCLINATION":"53.2145","PERIOD":"91.528","OBJECT_ID":"2022-107D","CENTER_NAME":"EARTH","EPOCH":"2022-10-26T22:00:00.999936","OBJECT_NAME":"STARLINK-4731","NORAD_CAT_ID":"53703","MEAN_MOTION_DOT":"-0.00117130","GP_ID":"216268491","EPHEMERIS_TYPE":"0","MEAN_MOTION_DDOT":"0.0000000000000","ECCENTRICITY":"0.00026490","TLE_LINE1":"1 53703U 22107D   22299.91667824 -.00117130  00000-0 -83820-3 0  9996","ELEMENT_SET_NO":"999","FILE":"3635100","COUNTRY_CODE":"US","DECAY_DATE":null,"APOAPSIS":"351.274","MEAN_ELEMENT_THEORY":"SGP4","TLE_LINE2":"2 53703  53.2145  16.6543 0002649  16.6783 305.1491 15.73294038  1306","MEAN_MOTION":"15.73294038","PERIAPSIS":"347.710","MEAN_ANOMALY":"305.1491","RCS_SIZE":"LARGE","OBJECT_TYPE":"PAYLOAD","RA_OF_ASC_NODE":"16.6543","TIME_SYSTEM":"UTC","LAUNCH_DATE":"2022-09-05","REV_AT_EPOCH":"130","SITE":"AFETR","CLASSIFICATION_TYPE":"U","ARG_OF_PERICENTER":"16.6783","SEMIMAJOR_AXIS":"6727.627"},{"ELEMENT_SET_NO":"999","FILE":"3635100","COUNTRY_CODE":"US","OBJECT_NAME":"STARLINK-4714","EPOCH":"2022-10-26T22:00:00.999936","NORAD_CAT_ID":"53704","REF_FRAME":"TEME","BSTAR":"0.00012879000000","PERIOD":"91.534","INCLINATION":"53.2140","OBJECT_ID":"2022-107E","CENTER_NAME":"EARTH","ECCENTRICITY":"0.00026600","TLE_LINE1":"1 53704U 22107E   22299.91667824  .00017483  00000-0  12879-3 0  9991","MEAN_MOTION_DOT":"0.00017483","MEAN_MOTION_DDOT":"0.0000000000000","GP_ID":"216267688","EPHEMERIS_TYPE":"0","LAUNCH_DATE":"2022-09-05","REV_AT_EPOCH":"130","RCS_SIZE":"LARGE","OBJECT_TYPE":"PAYLOAD","RA_OF_ASC_NODE":"16.6557","TIME_SYSTEM":"UTC","ARG_OF_PERICENTER":"13.4264","SEMIMAJOR_AXIS":"6727.931","SITE":"AFETR","CLASSIFICATION_TYPE":"U","MEAN_ELEMENT_THEORY":"SGP4","TLE_LINE2":"2 53704  53.2140  16.6557 0002660  13.4264 306.6318 15.73187604  1303","MEAN_MOTION":"15.73187604","APOAPSIS":"351.585","DECAY_DATE":null,"PERIAPSIS":"348.006","MEAN_ANOMALY":"306.6318"},{"GP_ID":"216268323","EPHEMERIS_TYPE":"0","MEAN_MOTION_DDOT":"0.0000000000000","MEAN_MOTION_DOT":"0.00020956","TLE_LINE1":"1 53705U 22107F   22299.91667824  .00020956  00000-0  15334-3 0  9990","ECCENTRICITY":"0.00025410","CENTER_NAME":"EARTH","INCLINATION":"53.2147","PERIOD":"91.533","OBJECT_ID":"2022-107F","BSTAR":"0.00015334000000","REF_FRAME":"TEME","NORAD_CAT_ID":"53705","OBJECT_NAME":"STARLINK-4717","EPOCH":"2022-10-26T22:00:00.999936","COUNTRY_CODE":"US","FILE":"3635100","ELEMENT_SET_NO":"999","MEAN_ANOMALY":"304.4051","PERIAPSIS":"348.045","DECAY_DATE":null,"APOAPSIS":"351.464","MEAN_MOTION":"15.73201933","TLE_LINE2":"2 53705  53.2147  16.6553 0002541  16.1421 304.4051 15.73201933  1302","MEAN_ELEMENT_THEORY":"SGP4","CLASSIFICATION_TYPE":"U","SITE":"AFETR","SEMIMAJOR_AXIS":"6727.890","ARG_OF_PERICENTER":"16.1421","TIME_SYSTEM":"UTC","OBJECT_TYPE":"PAYLOAD","RCS_SIZE":"LARGE","RA_OF_ASC_NODE":"16.6553","REV_AT_EPOCH":"130","LAUNCH_DATE":"2022-09-05"},{"NORAD_CAT_ID":"53706","EPOCH":"2022-10-26T22:00:00.999936","OBJECT_NAME":"STARLINK-4716","CENTER_NAME":"EARTH","OBJECT_ID":"2022-107G","PERIOD":"91.531","INCLINATION":"53.2148","REF_FRAME":"TEME","BSTAR":"-0.00064818000000","TLE_LINE1":"1 53706U 22107G   22299.91667824 -.00090801  00000-0 -64818-3 0  9990","ECCENTRICITY":"0.00024810","EPHEMERIS_TYPE":"0","GP_ID":"216267864","MEAN_MOTION_DDOT":"0.0000000000000","MEAN_MOTION_DOT":"-0.00090801","ELEMENT_SET_NO":"999","COUNTRY_CODE":"US","FILE":"3635100","MEAN_MOTION":"15.73244031","TLE_LINE2":"2 53706  53.2148  16.6536 0002481  22.7340 298.5517 15.73244031  1307","MEAN_ELEMENT_THEORY":"SGP4","DECAY_DATE":null,"APOAPSIS":"351.304","MEAN_ANOMALY":"298.5517","PERIAPSIS":"347.965","REV_AT_EPOCH":"130","LAUNCH_DATE":"2022-09-05","TIME_SYSTEM":"UTC","RCS_SIZE":"LARGE","OBJECT_TYPE":"PAYLOAD","RA_OF_ASC_NODE":"16.6536","SEMIMAJOR_AXIS":"6727.770","ARG_OF_PERICENTER":"22.7340","CLASSIFICATION_TYPE":"U","SITE":"AFETR"},{"CLASSIFICATION_TYPE":"U","SITE":"AFETR","SEMIMAJOR_AXIS":"6727.886","ARG_OF_PERICENTER":"18.1461","TIME_SYSTEM":"UTC","RCS_SIZE":"LARGE","RA_OF_ASC_NODE":"16.6472","OBJECT_TYPE":"PAYLOAD","REV_AT_EPOCH":"130","LAUNCH_DATE":"2022-09-05","MEAN_ANOMALY":"307.3131","PERIAPSIS":"347.995","APOAPSIS":"351.507","DECAY_DATE":null,"MEAN_MOTION":"15.73203174","TLE_LINE2":"2 53707  53.2148  16.6472 0002610  18.1461 307.3131 15.73203174  1308","MEAN_ELEMENT_THEORY":"SGP4","COUNTRY_CODE":"US","FILE":"3635100","ELEMENT_SET_NO":"999","GP_ID":"216268208","EPHEMERIS_TYPE":"0","MEAN_MOTION_DDOT":"0.0000000000000","MEAN_MOTION_DOT":"0.00007212","TLE_LINE1":"1 53707U 22107H   22299.91667824  .00007212  00000-0  55760-4 0  9990","ECCENTRICITY":"0.00026100","CENTER_NAME":"EARTH","INCLINATION":"53.2148","PERIOD":"91.533","OBJECT_ID":"2022-107H","REF_FRAME":"TEME","BSTAR":"0.00005576000000","NORAD_CAT_ID":"53707","EPOCH":"2022-10-26T22:00:00.999936","OBJECT_NAME":"STARLINK-4667"}];
